{
  "type": "FeatureCollection",
  "generator": "overpass-ide",
  "copyright": "The data included in this document is from www.openstreetmap.org. The data is made available under ODbL.",
  "timestamp": "2017-07-29T07:46:02Z",
  "features": [
    {
      "type": "Feature",
      "properties": {
        "@id": "way/34301073",
        "building": "yes",
        "name": "Aldi",
        "shop": "supermarket",
        "wheelchair": "yes"
      },
      "geometry": {
        "type": "Polygon",
        "coordinates": [
          [
            [
              8.3181402,
              49.4343287
            ],
            [
              8.3185603,
              49.433831
            ],
            [
              8.318899,
              49.4339623
            ],
            [
              8.3184854,
              49.4344452
            ],
            [
              8.3181402,
              49.4343287
            ]
          ]
        ]
      },
      "id": "way/34301073"
    },
    {
      "type": "Feature",
      "properties": {
        "@id": "way/40201061",
        "building": "yes",
        "name": "Lidl",
        "opening_hours": "Mo-Sa 8:00-21:00",
        "shop": "supermarket",
        "wheelchair": "yes"
      },
      "geometry": {
        "type": "Polygon",
        "coordinates": [
          [
            [
              8.317452,
              49.4342306
            ],
            [
              8.3171538,
              49.4341221
            ],
            [
              8.3173699,
              49.4338707
            ],
            [
              8.3174374,
              49.4338952
            ],
            [
              8.3176925,
              49.4335985
            ],
            [
              8.3178441,
              49.4336536
            ],
            [
              8.3178771,
              49.4336153
            ],
            [
              8.3179562,
              49.433644
            ],
            [
              8.317452,
              49.4342306
            ]
          ]
        ]
      },
      "id": "way/40201061"
    },
    {
      "type": "Feature",
      "properties": {
        "@id": "way/40201102",
        "addr:city": "Dannstadt-Schauernheim",
        "addr:housenumber": "2",
        "addr:postcode": "67125",
        "addr:street": "Riedstraße",
        "building": "yes",
        "name": "KiK Textilien",
        "opening_hours": "Mo-Sa 09:00-20:00",
        "shop": "clothes",
        "wheelchair": "yes"
      },
      "geometry": {
        "type": "Polygon",
        "coordinates": [
          [
            [
              8.3165307,
              49.4339947
            ],
            [
              8.3160985,
              49.4338448
            ],
            [
              8.3162885,
              49.433613
            ],
            [
              8.3165415,
              49.4336978
            ],
            [
              8.3165182,
              49.4337262
            ],
            [
              8.3166974,
              49.4337913
            ],
            [
              8.3165307,
              49.4339947
            ]
          ]
        ]
      },
      "id": "way/40201102"
    },
    {
      "type": "Feature",
      "properties": {
        "@id": "way/115005199",
        "addr:housenumber": "3",
        "addr:postcode": "67125",
        "addr:street": "Seebachring",
        "building": "yes",
        "name": "E aktiv markt",
        "shop": "supermarket",
        "source": "bing",
        "wheelchair": "yes"
      },
      "geometry": {
        "type": "Polygon",
        "coordinates": [
          [
            [
              8.3115131,
              49.4328603
            ],
            [
              8.3116168,
              49.4327353
            ],
            [
              8.3122282,
              49.43295
            ],
            [
              8.3120412,
              49.4331753
            ],
            [
              8.3118255,
              49.4330995
            ],
            [
              8.3119088,
              49.4329992
            ],
            [
              8.3115131,
              49.4328603
            ]
          ]
        ]
      },
      "id": "way/115005199"
    },
    {
      "type": "Feature",
      "properties": {
        "@id": "way/115415666",
        "addr:city": "Dannstadt-Schauernheim",
        "addr:housenumber": "2-4",
        "addr:postcode": "67125",
        "addr:street": "Neustadter Straße",
        "building": "retail",
        "name": "tegut...",
        "note": "reopening Sommer 2015",
        "old_name": "Wasgau",
        "shop": "supermarket",
        "source": "Bing",
        "wheelchair": "yes",
        "wheelchair:description": "barrierefreier Zugang"
      },
      "geometry": {
        "type": "Polygon",
        "coordinates": [
          [
            [
              8.2991804,
              49.4412766
            ],
            [
              8.2991562,
              49.4413346
            ],
            [
              8.2992379,
              49.441349
            ],
            [
              8.299173,
              49.441504
            ],
            [
              8.2984777,
              49.4413809
            ],
            [
              8.2985669,
              49.441168
            ],
            [
              8.2991804,
              49.4412766
            ]
          ]
        ]
      },
      "id": "way/115415666"
    },
    {
      "type": "Feature",
      "properties": {
        "@id": "way/117528565",
        "addr:housenumber": "52",
        "addr:postcode": "67125",
        "addr:street": "Speyerer Straße",
        "building": "yes",
        "name": "Calles Roman KFZ-Meisterbetrieb",
        "shop": "car_repair",
        "source": "Bing",
        "wheelchair": "yes"
      },
      "geometry": {
        "type": "Polygon",
        "coordinates": [
          [
            [
              8.3019921,
              49.4392492
            ],
            [
              8.3020417,
              49.4391896
            ],
            [
              8.3021161,
              49.4392158
            ],
            [
              8.3021305,
              49.4391985
            ],
            [
              8.3021948,
              49.4392211
            ],
            [
              8.3021308,
              49.439298
            ],
            [
              8.3019921,
              49.4392492
            ]
          ]
        ]
      },
      "id": "way/117528565"
    },
    {
      "type": "Feature",
      "properties": {
        "@id": "way/259022635",
        "area": "yes",
        "cartype": "farm_machine",
        "email": "info@petri-landmaschinen.de",
        "fax": "0 62 31 . 93 93 - 20",
        "name": "Petri + Söhne GmbH Landmaschinen",
        "phone": "0 62 31 . 93 93 - 0",
        "shop": "car",
        "website": "http://www.petri-landtechnik.de/"
      },
      "geometry": {
        "type": "Polygon",
        "coordinates": [
          [
            [
              8.3188023,
              49.4317957
            ],
            [
              8.319122,
              49.4319089
            ],
            [
              8.3202268,
              49.4322998
            ],
            [
              8.3198072,
              49.4328018
            ],
            [
              8.3195932,
              49.4327275
            ],
            [
              8.3193424,
              49.4326399
            ],
            [
              8.3192003,
              49.4325895
            ],
            [
              8.3183806,
              49.4322988
            ],
            [
              8.3185963,
              49.4320416
            ],
            [
              8.3186579,
              49.4319681
            ],
            [
              8.3188023,
              49.4317957
            ]
          ]
        ]
      },
      "id": "way/259022635"
    },
    {
      "type": "Feature",
      "properties": {
        "@id": "node/312452334",
        "name": "Bäckerei und Konditorei Roman Burdan",
        "opening_hours": "Mo-Fr 6:00-18:30; Sa 6:00-13:00",
        "shop": "bakery",
        "wheelchair": "yes"
      },
      "geometry": {
        "type": "Point",
        "coordinates": [
          8.3146499,
          49.4248879
        ]
      },
      "id": "node/312452334"
    },
    {
      "type": "Feature",
      "properties": {
        "@id": "node/960158084",
        "name": "Bäckerei Schneider",
        "shop": "bakery",
        "wheelchair": "limited",
        "wheelchair:description": "1 Stufe beim Eingang, Ware wird aber gerne raus gebracht."
      },
      "geometry": {
        "type": "Point",
        "coordinates": [
          8.3067101,
          49.4397122
        ]
      },
      "id": "node/960158084"
    },
    {
      "type": "Feature",
      "properties": {
        "@id": "node/960158085",
        "name": "Metzgerei Keck",
        "shop": "convenience",
        "wheelchair": "yes"
      },
      "geometry": {
        "type": "Point",
        "coordinates": [
          8.3068683,
          49.439925
        ]
      },
      "id": "node/960158085"
    },
    {
      "type": "Feature",
      "properties": {
        "@id": "node/1168604130",
        "amenity": "cafe",
        "name": "Bäcker Görtz",
        "outdoor_seating": "yes",
        "shop": "bakery",
        "website": "http://www.baeckergoertz.de/",
        "wheelchair": "no"
      },
      "geometry": {
        "type": "Point",
        "coordinates": [
          8.3135865,
          49.4292705
        ]
      },
      "id": "node/1168604130"
    },
    {
      "type": "Feature",
      "properties": {
        "@id": "node/2387656600",
        "name": "Arnold Dernberger Obst u. Gemüse",
        "opening_hours": "Mo-Sa 7:30-12:30; Fr 14:30-18:00",
        "phone": "06326 8462",
        "shop": "greengrocer"
      },
      "geometry": {
        "type": "Point",
        "coordinates": [
          8.3147949,
          49.4248377
        ]
      },
      "id": "node/2387656600"
    },
    {
      "type": "Feature",
      "properties": {
        "@id": "node/2634787758",
        "addr:housenumber": "8",
        "addr:street": "Kirchenstraße",
        "email": "info@printart.de",
        "fax": "0 62 31/76 96",
        "name": "Druckerei, Verlag und Medienagentur",
        "phone": "0 62 31/ 91 85-0",
        "shop": "copyshop",
        "website": "http://www.printart.de/"
      },
      "geometry": {
        "type": "Point",
        "coordinates": [
          8.3176238,
          49.4263257
        ]
      },
      "id": "node/2634787758"
    },
    {
      "type": "Feature",
      "properties": {
        "@id": "node/2634787778",
        "addr:housenumber": "131",
        "addr:street": "Hauptstraße",
        "building": "yes",
        "name": "Marina Keck",
        "opening_hours": "Tu-Fr 09:00-18:00; Sa 08:30-13:00",
        "shop": "hairdresser"
      },
      "geometry": {
        "type": "Point",
        "coordinates": [
          8.3179333,
          49.4247898
        ]
      },
      "id": "node/2634787778"
    },
    {
      "type": "Feature",
      "properties": {
        "@id": "node/2634787818",
        "addr:housenumber": "147",
        "addr:street": "Hauptstraße",
        "name": "Ralf Nusskern",
        "opening_hours": "Tu-Th 08:30-18:00; Fr 08:30-20:00; Sa 07:00-13:00",
        "phone": "06231 / 403740",
        "shop": "hairdresser",
        "website": "http://www.nusskern-friseure.de"
      },
      "geometry": {
        "type": "Point",
        "coordinates": [
          8.319465,
          49.4239091
        ]
      },
      "id": "node/2634787818"
    },
    {
      "type": "Feature",
      "properties": {
        "@id": "node/2634787820",
        "name": "Schmich augen-optik",
        "shop": "optician",
        "website": "http://www.schmich-augenoptik.de/"
      },
      "geometry": {
        "type": "Point",
        "coordinates": [
          8.3165854,
          49.4256526
        ]
      },
      "id": "node/2634787820"
    },
    {
      "type": "Feature",
      "properties": {
        "@id": "node/2634787821",
        "addr:housenumber": "119",
        "addr:street": "Hauptstraße",
        "building": "yes",
        "name": "Textil Lutz",
        "opening_hours": "Mo-Sa 09:00-12:00; Mo, Tu, Th, Fr 14:30-18:00",
        "shop": "clothes"
      },
      "geometry": {
        "type": "Point",
        "coordinates": [
          8.3171154,
          49.4251549
        ]
      },
      "id": "node/2634787821"
    },
    {
      "type": "Feature",
      "properties": {
        "@id": "node/2634804535",
        "addr:housenumber": "12",
        "addr:street": "Raiffeisenstraße",
        "building": "yes",
        "email": "mail@al-computerservice.de",
        "fax": "06231 - 98841",
        "name": "Al-Computerservice",
        "opening_hours": "Mo-Fr 10:00-18:00",
        "phone": "06231 - 98088",
        "shop": "computer",
        "website": "http://www.cosela.de/"
      },
      "geometry": {
        "type": "Point",
        "coordinates": [
          8.3213032,
          49.423963
        ]
      },
      "id": "node/2634804535"
    },
    {
      "type": "Feature",
      "properties": {
        "@id": "node/2634864441",
        "name": "Claus Mechnich",
        "shop": "electronics"
      },
      "geometry": {
        "type": "Point",
        "coordinates": [
          8.3172364,
          49.4267548
        ]
      },
      "id": "node/2634864441"
    },
    {
      "type": "Feature",
      "properties": {
        "@id": "node/2634864650",
        "addr:housenumber": "19",
        "addr:street": "Kirchenstraße",
        "building": "yes",
        "fax": "06231/98544",
        "name": "Winkelmann - Haus der Geschenke",
        "opening_hours": "Mo-Sa 09:00-12:30; Mo,Tu,Th,Fr 15:00-18:00",
        "phone": "06231/98565",
        "shop": "gift",
        "website": "http://www.winkelmann-geschenke.de/"
      },
      "geometry": {
        "type": "Point",
        "coordinates": [
          8.318618,
          49.4260563
        ]
      },
      "id": "node/2634864650"
    },
    {
      "type": "Feature",
      "properties": {
        "@id": "node/2639364242",
        "addr:housenumber": "130",
        "addr:street": "Hauptstraße",
        "name": "Blumen Münch",
        "phone": "06231 5784",
        "shop": "florist"
      },
      "geometry": {
        "type": "Point",
        "coordinates": [
          8.3158674,
          49.4261832
        ]
      },
      "id": "node/2639364242"
    },
    {
      "type": "Feature",
      "properties": {
        "@id": "node/2639364256",
        "addr:housenumber": "13",
        "addr:street": "Mozartstraße",
        "name": "Haarstudio Mareen",
        "shop": "hairdresser",
        "wheelchair": "no"
      },
      "geometry": {
        "type": "Point",
        "coordinates": [
          8.3149402,
          49.4324821
        ]
      },
      "id": "node/2639364256"
    },
    {
      "type": "Feature",
      "properties": {
        "@id": "node/2639364311",
        "addr:housenumber": "124",
        "addr:street": "Hauptstraße",
        "amenity": "post_office",
        "shop": "beverages"
      },
      "geometry": {
        "type": "Point",
        "coordinates": [
          8.3155841,
          49.4264571
        ]
      },
      "id": "node/2639364311"
    },
    {
      "type": "Feature",
      "properties": {
        "@id": "node/2639364357",
        "addr:housenumber": "180",
        "addr:street": "Hauptstraße",
        "building": "yes",
        "shop": "farm"
      },
      "geometry": {
        "type": "Point",
        "coordinates": [
          8.3194786,
          49.423534
        ]
      },
      "id": "node/2639364357"
    },
    {
      "type": "Feature",
      "properties": {
        "@id": "node/2640697130",
        "addr:housenumber": "173",
        "addr:street": "Hauptstraße",
        "name": "Kosmetiksalon Brigitte Ullrich",
        "phone": "06231 7285",
        "shop": "beauty"
      },
      "geometry": {
        "type": "Point",
        "coordinates": [
          8.3213407,
          49.4222031
        ]
      },
      "id": "node/2640697130"
    },
    {
      "type": "Feature",
      "properties": {
        "@id": "node/2640697171",
        "addr:housenumber": "230",
        "addr:street": "Hauptstraße",
        "name": "Wildspezialitäten Roger Kaminski",
        "opening_hours": "Fr 15:00-18:00; Sa 8:00-12:30",
        "shop": "deli",
        "website": "http://www.der-kaminski.de/"
      },
      "geometry": {
        "type": "Point",
        "coordinates": [
          8.3229663,
          49.4201389
        ]
      },
      "id": "node/2640697171"
    },
    {
      "type": "Feature",
      "properties": {
        "@id": "node/2641785989",
        "addr:housenumber": "157",
        "addr:street": "Hauptstraße",
        "building": "yes",
        "shop": "farm"
      },
      "geometry": {
        "type": "Point",
        "coordinates": [
          8.3203211,
          49.4231297
        ]
      },
      "id": "node/2641785989"
    },
    {
      "type": "Feature",
      "properties": {
        "@id": "node/2641786066",
        "addr:housenumber": "9",
        "addr:street": "Böhler Straße",
        "name": "Monja Hastenteufel",
        "opening_hours": "Mo 10:00-13:00,15:00-18:00; We 10:00-13:00; Fr 10:00-13:00",
        "phone": "06231-602319",
        "shop": "clothes",
        "website": "http://www.monja-krone.de/"
      },
      "geometry": {
        "type": "Point",
        "coordinates": [
          8.3197088,
          49.4218453
        ]
      },
      "id": "node/2641786066"
    },
    {
      "type": "Feature",
      "properties": {
        "@id": "node/2642116652",
        "name": "Hans Schuster & Sohn",
        "phone": "06231 / 77 37",
        "shop": "electronics",
        "website": "http://www.hans-schuster-sohn.de/"
      },
      "geometry": {
        "type": "Point",
        "coordinates": [
          8.3113038,
          49.4278972
        ]
      },
      "id": "node/2642116652"
    },
    {
      "type": "Feature",
      "properties": {
        "@id": "node/2643440362",
        "name": "Auto-Kremer",
        "phone": "06231 5469",
        "shop": "car_repair",
        "wheelchair": "yes"
      },
      "geometry": {
        "type": "Point",
        "coordinates": [
          8.3196597,
          49.4312745
        ]
      },
      "id": "node/2643440362"
    },
    {
      "type": "Feature",
      "properties": {
        "@id": "node/2643440489",
        "name": "Monika Schmidt",
        "phone": "0176 68352139",
        "shop": "beauty"
      },
      "geometry": {
        "type": "Point",
        "coordinates": [
          8.3201068,
          49.4308129
        ]
      },
      "id": "node/2643440489"
    },
    {
      "type": "Feature",
      "properties": {
        "@id": "node/2643440623",
        "email": "marc.gensheimer@rwz.de",
        "fax": "06231 / 94 27-99",
        "name": "RWZ Agrartechnik",
        "opening_hours": "Mo-Fr 07:30-17:00",
        "operator": "Raiffeisen Waren-Zentrale Rhein-Main eG",
        "phone": "06231 / 94 27-70",
        "shop": "car",
        "type": "farm_machine",
        "website": "http://www.rwz.de/standorte_details.html?standort=1505"
      },
      "geometry": {
        "type": "Point",
        "coordinates": [
          8.3196202,
          49.431884
        ]
      },
      "id": "node/2643440623"
    },
    {
      "type": "Feature",
      "properties": {
        "@id": "node/2643440632",
        "email": "info@kfz-schwab.net",
        "fax": "06231 - 93 94 96",
        "name": "Rüdiger Schwab",
        "operator": "Rüdiger Schwab",
        "phone": "06231 - 93 94 95",
        "shop": "car_repair",
        "website": "http://www.kfz-schwab.net/kontakt.php"
      },
      "geometry": {
        "type": "Point",
        "coordinates": [
          8.320207,
          49.4299401
        ]
      },
      "id": "node/2643440632"
    },
    {
      "type": "Feature",
      "properties": {
        "@id": "node/2651585544",
        "brand": "VW",
        "name": "Auto Gerdon GmbH",
        "shop": "car",
        "website": "http://www.auto-gerdon.de/",
        "wheelchair": "limited"
      },
      "geometry": {
        "type": "Point",
        "coordinates": [
          8.3094511,
          49.4321728
        ]
      },
      "id": "node/2651585544"
    },
    {
      "type": "Feature",
      "properties": {
        "@id": "node/2651585550",
        "email": "Info@herrenfriseur-nusskern.de",
        "fax": "+49 62 31 - 91 51 55",
        "name": "Friseursalon Erich Nußkern",
        "phone": "+49 62 31 - 40 30 770",
        "shop": "hairdresser",
        "website": "http://www.herrenfriseur-nusskern.de/"
      },
      "geometry": {
        "type": "Point",
        "coordinates": [
          8.3111165,
          49.4316228
        ]
      },
      "id": "node/2651585550"
    },
    {
      "type": "Feature",
      "properties": {
        "@id": "node/2651585552",
        "addr:housenumber": "12b",
        "addr:street": "Haardtstraße",
        "name": "Getränke Bayer",
        "shop": "beverages",
        "wheelchair": "yes"
      },
      "geometry": {
        "type": "Point",
        "coordinates": [
          8.3124856,
          49.4274727
        ]
      },
      "id": "node/2651585552"
    },
    {
      "type": "Feature",
      "properties": {
        "@id": "node/2651585553",
        "name": "Glas Raumausstattung",
        "shop": "interior_decoration"
      },
      "geometry": {
        "type": "Point",
        "coordinates": [
          8.3120986,
          49.4303469
        ]
      },
      "id": "node/2651585553"
    },
    {
      "type": "Feature",
      "properties": {
        "@id": "node/2651585681",
        "addr:housenumber": "24",
        "addr:street": "Haardtstraße",
        "building": "yes",
        "name": "Mathilde Strobel Handarbeitsgeschäft",
        "phone": "06231 5737",
        "shop": "fabric"
      },
      "geometry": {
        "type": "Point",
        "coordinates": [
          8.3118853,
          49.4271924
        ]
      },
      "id": "node/2651585681"
    },
    {
      "type": "Feature",
      "properties": {
        "@id": "node/2651585759",
        "shop": "newsagent"
      },
      "geometry": {
        "type": "Point",
        "coordinates": [
          8.3109633,
          49.4318685
        ]
      },
      "id": "node/2651585759"
    },
    {
      "type": "Feature",
      "properties": {
        "@id": "node/2651585768",
        "addr:housenumber": "8",
        "addr:street": "Haardtstraße",
        "email": "tanja-nagelstuebchen@web.de",
        "name": "Tanja´s Nagelstübchen",
        "phone": "06231 / 916370",
        "shop": "beauty",
        "website": "http://www.tanja-nagelstübchen.de/"
      },
      "geometry": {
        "type": "Point",
        "coordinates": [
          8.3136612,
          49.4278028
        ]
      },
      "id": "node/2651585768"
    },
    {
      "type": "Feature",
      "properties": {
        "@id": "node/4323159793",
        "addr:city": "Dannstadt-Schauernheim",
        "addr:postcode": "67125",
        "addr:street": "Hauptstraße",
        "shop": "travel_agency"
      },
      "geometry": {
        "type": "Point",
        "coordinates": [
          8.3104131,
          49.4323757
        ]
      },
      "id": "node/4323159793"
    },
    {
      "type": "Feature",
      "properties": {
        "@id": "node/4445151920",
        "name": "Birgit Kramer Haardesign",
        "shop": "hairdresser"
      },
      "geometry": {
        "type": "Point",
        "coordinates": [
          8.3035982,
          49.437584
        ]
      },
      "id": "node/4445151920"
    }
  ]
}
